[{"OBJECT_NAME":"BANDWAGON-2 OBJECT D","OBJECT_ID":"2024-247D","EPOCH":"2026-03-09T12:32:33.670752","MEAN_MOTION":15.29076102,"ECCENTRICITY":0.00034883,"INCLINATION":44.9954,"RA_OF_ASC_NODE":115.671,"ARG_OF_PERICENTER":351.1453,"MEAN_ANOMALY":8.9368,"EPHEMERIS_TYPE":0,"CLASSIFICATION_TYPE":"U","NORAD_CAT_ID":62380,"ELEMENT_SET_NO":999,"REV_AT_EPOCH":6773,"BSTAR":0.00040119131,"MEAN_MOTION_DOT":0.00011259,"MEAN_MOTION_DDOT":0},{"OBJECT_NAME":"STARLINK-35509","OBJECT_ID":"2025-243Y","EPOCH":"2026-03-09T19:22:15.415968","MEAN_MOTION":15.30205868,"ECCENTRICITY":9.629e-5,"INCLINATION":53.1599,"RA_OF_ASC_NODE":244.5686,"ARG_OF_PERICENTER":64.9004,"MEAN_ANOMALY":295.2097,"EPHEMERIS_TYPE":0,"CLASSIFICATION_TYPE":"U","NORAD_CAT_ID":66199,"ELEMENT_SET_NO":999,"REV_AT_EPOCH":2067,"BSTAR":0.00094307228,"MEAN_MOTION_DOT":0.00027681,"MEAN_MOTION_DDOT":0}]
